{"class":"org.apache.spark.ml.feature.VectorAssembler","timestamp":1622575122480,"sparkVersion":"3.1.1","uid":"VectorAssembler_8a80e3e7cc72","paramMap":{"outputCol":"features","inputCols":["orbit_id_indexed_encoded","class_indexed_encoded","H","epoch","epoch_mjd","epoch_cal","e","a","q","i","om","w","ma","ad","n","tp","tp_cal","per","per_y","moid","moid_ld","sigma_e","sigma_a","sigma_q","sigma_i","sigma_om","sigma_w","sigma_ad","sigma_n","sigma_tp","sigma_per","rms","Q_ph"]},"defaultParamMap":{"handleInvalid":"error","outputCol":"VectorAssembler_8a80e3e7cc72__output"}}
